PROMETHEUS 2-3          
1 41855U 16067H   25181.54233150  .00035509  00000+0  63269-3 0  9993
2 41855  98.0679  36.5181 0005880 165.3321 194.8100 15.50019312473655
CORVUS BC2              
1 42846U 17042X   25181.74768490  .00002385  00000+0  18095-3 0  9993
2 42846  97.3767 353.3177 0013163 227.3185 132.6933 15.03054342434214
CORVUS BC1              
1 42847U 17042Y   25182.06142414  .00001890  00000+0  14344-3 0  9995
2 42847  97.3794 354.1707 0011872 197.8790 162.2020 15.03301573434285
MIRATA                  
1 43015U 17073C   25182.18136317  .00076730  00000+0  11317-2 0  9996
2 43015  97.5362  78.0047 0074635   8.6799 351.5723 15.51870906414150
MAKERSAT 0              
1 43016U 17073D   25181.92868924  .00014000  00000+0  55169-3 0  9990
2 43016  97.5163  59.9062 0147142  66.6125 295.0505 15.16156503412975
SIRION PATHFINDER-2     
1 43759U 18099B   25182.38353894  .00003496  00000+0  21834-3 0  9998
2 43759  97.4756 234.7873 0011204  74.7420 285.5047 15.10068396359607
CORVUS BC4              
1 43767U 18099K   25181.70761644  .00002242  00000+0  14747-3 0  9991
2 43767  97.4570 229.8472 0010517 126.1330 234.0873 15.08524820359341
MOVE-II                 
1 43780U 18099Y   25181.76589582  .00567113  12801-3  17792-2 0  9992
2 43780  97.4633 259.2546 0007372 234.7963 125.2621 15.91375071361156
SPACEBEE-7              
1 43816U 18099BL  25181.62969204  .00021158  00000+0  57884-3 0  9995
2 43816  97.4943 252.2666 0006136  53.8710 306.3102 15.37362838360032
SHIELDS 1               
1 43850U 18104B   25181.58369120  .00023702  00000+0  26829-3 0  9998
2 43850  85.0135  21.7434 0008181  73.8990 286.3173 15.62230896364734
SONATE                  
1 44400U 19038Q   25182.52656083  .01607209  26071-5  74775-3 0  9995
2 44400  97.6673 212.9575 0009632 212.8244 147.2448 16.21635479333098
DUCHIFAT-3              
1 44854U 19089C   25182.43341794  .00034657  00000+0  64054-3 0  9991
2 44854  36.9410 216.0710 0004026 155.9577 204.1368 15.48136106306332
M2 PATHFINDER           
1 45727U 20037E   25182.05347657  .00002268  00000+0  17630-3 0  9999
2 45727  97.8156   4.8582 0011973 255.7705 104.2190 15.02296113272730
NETSAT-4                
1 46504U 20068U   25182.18168793  .00009856  00000+0  33307-3 0  9992
2 46504  97.8461 161.2375 0008923 120.4132 239.7990 15.30838146261856
NETSAT-3                
1 46505U 20068V   25181.86819176  .00009051  00000+0  32071-3 0  9999
2 46505  97.8462 159.7967 0008499 130.4677 229.7305 15.29327386261766
NETSAT-1                
1 46506U 20068W   25181.92253245  .00006030  00000+0  24859-3 0  9995
2 46506  97.8489 157.5242 0007645 143.2109 216.9653 15.24456863261618
NETSAT-2                
1 46507U 20068X   25181.91601969  .00009554  00000+0  32681-3 0  9991
2 46507  97.8462 160.4302 0006781 140.6763 219.4970 15.30469246261758
WILDTRACKCUBE-SIMBA     
1 47941U 21022K   25182.51811886  .00022767  00000+0  46002-3 0  9996
2 47941  97.4198  87.5635 0007865 218.9480 141.1204 15.46463087236588
LEDSAT                  
1 49069U 21073D   25182.21469447  .00063789  00000+0  68991-3 0  9994
2 49069  97.3878 264.6984 0006980 357.8819   2.2409 15.63371984214815
GREENCUBE (IO-117)      
1 53109U 22080E   25182.06859289 -.00000003  00000+0  00000+0 0  9997
2 53109  70.1415  60.3463 0008638   5.7542 354.3216  6.42583681 69505
SITRO-AIS 5 (KATYS)     
1 57176U 23091L   25182.54379739  .00006400  00000+0  29911-3 0  9990
2 57176  97.5567 239.5323 0012483 250.1619 109.8271 15.20077549110916
SITRO-AIS 6 (CHIRKIN)   
1 57192U 23091AC  25182.46671951  .00006105  00000+0  28631-3 0  9990
2 57192  97.5564 239.4617 0012445 250.2908 109.6984 15.19977894110904
SITRO-AIS 8 (ANOKHIN)   
1 57193U 23091AD  25182.48546666  .00007256  00000+0  32580-3 0  9993
2 57193  97.5563 240.0320 0011859 249.2045 110.7920 15.21419504110940
SITRO-AIS 7 (FARTUSHNIY)
1 57194U 23091AE  25182.48975632  .00006627  00000+0  31148-3 0  9993
2 57194  97.5566 239.4202 0012247 250.7944 109.1965 15.19871908110906
SITRO-AIS 10 (BURDAEV)  
1 57199U 23091AK  25182.48391606  .00008563  00000+0  34742-3 0  9995
2 57199  97.5576 242.4702 0008171 227.8791 132.1752 15.24838327111092
SITRO-AIS 9 (SHCHUKIN)  
1 57201U 23091AM  25182.43875121  .00009739  00000+0  39693-3 0  9999
2 57201  97.5571 242.3311 0008143 228.2320 131.8222 15.24644027111087
SITRO-AIS 12 (SMIRENNIY)
1 57204U 23091AQ  25182.48356960  .00008636  00000+0  35023-3 0  9990
2 57204  97.5581 242.6679 0008183 221.0054 139.0569 15.24847311111108
SITRO-AIS 11 (SHEFFER)  
1 57208U 23091AU  25182.43360197  .00009364  00000+0  37713-3 0  9993
2 57208  97.5579 242.7122 0008035 221.3047 138.7584 15.25055356111108
VERONIKA                
1 58261U 23174F   25182.46122365  .00165262  00000+0  10155-2 0  9991
2 58261  97.4090 270.0535 0004116 261.1383  98.9416 15.76756750 92121
ROBUSTA-1E (ENSO)       
1 58470U 23185J   25182.48949576  .00046733  00000+0  62403-3 0  9993
2 58470  97.3719 258.3442 0005052   9.3247 350.8101 15.57930001 88440
SITRO-AIS 25            
1 59066U 24039R   25182.43000465  .00005011  00000+0  42094-3 0  9992
2 59066  95.3767 354.8757 0157348 110.8388 250.9767 14.89322346 72446
SITRO-AIS 26            
1 59067U 24039S   25182.52525119  .00003932  00000+0  33207-3 0  9997
2 59067  95.3769 354.8972 0157492 110.7636 251.0542 14.89175398 72450
SITRO-AIS 27            
1 59068U 24039T   25182.51548673  .00004277  00000+0  35854-3 0  9990
2 59068  95.3770 355.0221 0156789 110.1036 251.7137 14.89501728 72467
SITRO-AIS 28            
1 59071U 24039U   25182.50194322  .00004810  00000+0  40258-3 0  9998
2 59071  95.3770 355.0406 0156680 110.0619 251.7547 14.89541799 72469
GRBBETA                 
1 60237U 24128C   25182.49499037  .00003253  00000+0  25020-3 0  9992
2 60237  61.9924   3.1372 0053541  62.4280 298.2234 15.02792828 53492
OOV-CUBE (TUBSAT-30)    
1 60240U 24128F   25181.85719515  .00001692  00000+0  14669-3 0  9993
2 60240  61.9959   8.4575 0053655  59.2566 301.3792 15.00355690 53354
ROBUSTA-3A (MEDITERRAN*)
1 60243U 24128J   25182.57053913  .00005652  00000+0  40010-3 0  9998
2 60243  61.9897   1.7404 0052345  56.3751 304.2319 15.04910030 53530
LASARSAT                
1 62391U 24247Q   25181.98070328  .00010558  00000+0  40836-3 0  9996
2 62391  44.9816  43.3343 0008319 180.9437 179.1431 15.26403571 29335
CROCUBE                 
1 62394U 24247T   25181.97204220  .00011271  00000+0  43239-3 0  9991
2 62394  44.9763  43.2474 0008699 183.1249 176.9580 15.26611891 29336
